     2.100          NAVIGATION                              RINEX VERSION / TYPE
fic2rin                                 12/05/2010 00:25:06 PGM / RUN BY / DATE
                                                            END OF HEADER
30 10 12  4  4  0  0.0  .301845371723D-03  .329691829393D-11  .000000000000D+00
     .830000000000D+02 -.361562500000D+02  .427660670926D-08 -.183342964714D+01
    -.181421637535D-05  .130326903891D-01  .114571303129D-04  .515535223961D+04
     .532800000000D+06  .158324837685D-06  .126729787330D+00  .238418579102D-06
     .958825169180D+00  .155843750000D+03  .155597311625D+01 -.765139013968D-08
     .387158983869D-09  .100000000000D+01  .161200000000D+04  .000000000000D+00
     .485000000000D+01  .000000000000D+00 -.791624188423D-08  .830000000000D+02
     .525606000000D+06  .400000000000D+01
31 10 12  4  4  0  0.0  .151135027409D-04  .386535248253D-11  .000000000000D+00
     .490000000000D+02 -.139718750000D+03  .400516683127D-08  .132088653602D+01
    -.745616853237D-05  .774025951978D-02  .605359673500D-05  .515355325699D+04
     .532800000000D+06  .113621354103D-06 -.870345812254D+00 -.113621354103D-06
     .978510216798D+00  .270718750000D+03 -.104129991594D+01 -.789104297933D-08
    -.304298389535D-09  .100000000000D+01  .161200000000D+04  .000000000000D+00
     .240000000000D+01  .000000000000D+00 -.130385160446D-07  .490000000000D+02
     .525606000000D+06  .400000000000D+01
32 10 12  4  4  0  0.0 -.145588070154D-03 -.829913915368D-11  .000000000000D+00
     .150000000000D+02  .151718750000D+03  .430053627746D-08  .215841559207D+01
     .771507620811D-05  .125653903233D-01  .792741775513D-05  .515357141685D+04
     .532800000000D+06  .141561031342D-06 -.288541329478D+01  .132247805595D-06
     .957338275336D+00  .223593750000D+03 -.875722621362D+00 -.779568186430D-08
     .542879755978D-10  .100000000000D+01  .161200000000D+04  .000000000000D+00
     .240000000000D+01  .000000000000D+00 -.372529029846D-08  .150000000000D+02
     .525606000000D+06  .400000000000D+01
 3 10 12  4  3 59 44.0  .643825158477D-03  .511590769747D-11  .000000000000D+00
     .000000000000D+00  .170000000000D+02  .558844706697D-08  .294916176849D+01
     .823289155960D-06  .138589738635D-01  .488199293613D-05  .515361629868D+04
     .532784000000D+06  .726431608200D-07  .109260516396D+01 -.167638063431D-06
     .927631838035D+00  .265281250000D+03  .106348954368D+01 -.830677458193D-08
     .236795577772D-09  .100000000000D+01  .161200000000D+04  .000000000000D+00
     .240000000000D+01  .000000000000D+00 -.465661287308D-08  .000000000000D+00
     .526506000000D+06  .400000000000D+01
30 10 12  4  3 59 44.0  .301844440401D-03  .329691829393D-11  .000000000000D+00
     .100000000000D+02 -.361562500000D+02  .427696386700D-08 -.183576061254D+01
    -.181421637535D-05  .130326978397D-01  .114571303129D-04  .515535223579D+04
     .532784000000D+06  .158324837685D-06  .126729916067D+00  .238418579102D-06
     .958825167717D+00  .155843750000D+03  .155597265251D+01 -.765139013968D-08
     .387158983869D-09  .100000000000D+01  .161200000000D+04  .000000000000D+00
     .240000000000D+01  .000000000000D+00 -.791624188423D-08  .100000000000D+02
     .528516000000D+06  .400000000000D+01
 9 10 12  4  3 59 44.0  .464902259409D-04  .238742359215D-11  .000000000000D+00
     .180000000000D+02 -.136906250000D+03  .419231748399D-08  .642057087569D+00
    -.725127756596D-05  .169641831890D-01  .604614615440D-05  .515369532967D+04
     .532784000000D+06 -.197440385818D-06 -.900579259941D+00 -.819563865662D-07
     .982290661903D+00  .279406250000D+03  .155369984689D+01 -.825748681461D-08
    -.330728061866D-09  .100000000000D+01  .161200000000D+04  .000000000000D+00
     .240000000000D+01  .000000000000D+00 -.558793544769D-08  .180000000000D+02
     .529206000000D+06  .400000000000D+01
12 10 12  4  3 59 44.0 -.480464659631D-04  .352429196937D-11  .000000000000D+00
     .210000000000D+02 -.435625000000D+02  .409445626482D-08  .140621417053D+01
    -.225752592087D-05  .336112780496D-02  .110883265734D-04  .515355473137D+04
     .532784000000D+06  .763684511185D-07  .183156512587D+00  .316649675369D-07
     .973426064451D+00  .171031250000D+03 -.328949956989D+00 -.759781647955D-08
     .410731394325D-09  .100000000000D+01  .161200000000D+04  .000000000000D+00
     .240000000000D+01  .000000000000D+00 -.116415321827D-07  .210000000000D+02
     .531906000000D+06  .400000000000D+01
 3 10 12  4  5 59 44.0  .643862411380D-03  .511590769747D-11  .000000000000D+00
     .200000000000D+01  .191875000000D+02  .560951937328D-08 -.228378975027D+01
     .101141631603D-05  .138583933003D-01  .511482357979D-05  .515361740875D+04
     .539984000000D+06  .180676579475D-06  .109254443677D+01 -.186264514923D-07
     .927633969507D+00  .261562500000D+03  .106347963826D+01 -.834249035535D-08
     .374658463172D-09  .100000000000D+01  .161200000000D+04  .000000000000D+00
     .240000000000D+01  .000000000000D+00 -.465661287308D-08  .200000000000D+01
     .532806000000D+06  .400000000000D+01
 9 10 12  4  5 59 44.0  .465074554086D-04  .238742359215D-11  .000000000000D+00
     .190000000000D+02 -.157000000000D+03  .395016454021D-08  .169208438803D+01
    -.839494168758D-05  .169657843653D-01  .550225377083D-05  .515370053291D+04
     .539984000000D+06  .111758708954D-06 -.900638347202D+00 -.404193997383D-06
     .982290288859D+00  .286562500000D+03  .155383514194D+01 -.786854204207D-08
    -.233224000430D-09  .100000000000D+01  .161200000000D+04  .000000000000D+00
     .240000000000D+01  .000000000000D+00 -.558793544769D-08  .190000000000D+02
     .532806000000D+06  .400000000000D+01
12 10 12  4  5 59 44.0 -.480213202536D-04  .352429196937D-11  .000000000000D+00
     .220000000000D+02 -.464375000000D+02  .403052503040D-08  .245611352564D+01
    -.238418579102D-05  .336052489001D-02  .115148723125D-04  .515355719948D+04
     .539984000000D+06 -.372529029846D-08  .183101287429D+00  .160187482834D-06
     .973429372109D+00  .161718750000D+03 -.328599184344D+00 -.757460122683D-08
     .522164607395D-09  .100000000000D+01  .161200000000D+04  .000000000000D+00
     .240000000000D+01  .000000000000D+00 -.116415321827D-07  .220000000000D+02
     .532806000000D+06  .400000000000D+01
30 10 12  4  5 59 44.0  .301868189126D-03  .329691829393D-11  .000000000000D+00
     .110000000000D+02 -.425625000000D+02  .444804242168D-08 -.786593774159D+00
    -.215880572796D-05  .130322198384D-01  .114124268293D-04  .515535231018D+04
     .539984000000D+06 -.169500708580D-06  .126672990999D+00  .670552253723D-07
     .958826532619D+00  .159437500000D+03  .155595975835D+01 -.801140513575D-08
     .440375486264D-09  .100000000000D+01  .161200000000D+04  .000000000000D+00
     .240000000000D+01  .000000000000D+00 -.791624188423D-08  .110000000000D+02
     .532806000000D+06  .400000000000D+01
 2 10 12  4  6  0  0.0  .306465663016D-03  .238742359215D-11  .000000000000D+00
     .540000000000D+02  .375000000000D+00  .484770192624D-08 -.218507809330D+01
    -.745058059692D-08  .981138751376D-02  .975281000137D-05  .515367433929D+04
     .540000000000D+06 -.763684511185D-07  .224825381556D+01 -.195577740669D-06
     .939178179375D+00  .179031250000D+03 -.312404234431D+01 -.801140513575D-08
    -.581809949005D-09  .100000000000D+01  .161200000000D+04  .000000000000D+00
     .240000000000D+01  .000000000000D+00 -.172294676304D-07  .540000000000D+02
     .532806000000D+06  .400000000000D+01
 4 10 12  4  6  0  0.0  .235935673118D-03  .977706804406D-11  .000000000000D+00
     .820000000000D+02  .375000000000D+00  .494699177635D-08  .760853395546D+00
     .262632966042D-06  .952526170295D-02  .943988561630D-05  .515379218102D+04
     .540000000000D+06 -.104308128357D-06  .226587983670D+01  .104308128357D-06
     .938309214814D+00  .186687500000D+03  .684996740955D+00 -.815283959849D-08
    -.737887878849D-09  .100000000000D+01  .161200000000D+04  .000000000000D+00
     .240000000000D+01  .000000000000D+00 -.605359673500D-08  .820000000000D+02
     .532806000000D+06  .400000000000D+01
 5 10 12  4  6  0  0.0 -.774348154664D-04 -.591171556152D-11  .000000000000D+00
     .360000000000D+02  .148437500000D+03  .427089218552D-08 -.497993451632D+00
     .772438943386D-05  .212695274968D-02  .950694084167D-05  .515358159065D+04
     .540000000000D+06  .465661287308D-07 -.297443489107D+01 -.223517417908D-07
     .956561852046D+00  .190468750000D+03  .204544339796D+00 -.797604652007D-08
     .112147528538D-09  .100000000000D+01  .161200000000D+04  .000000000000D+00
     .240000000000D+01  .000000000000D+00 -.977888703346D-08  .360000000000D+02
     .532806000000D+06  .400000000000D+01
 6 10 12  4  6  0  0.0  .400885939598D-03 -.109139364213D-10  .000000000000D+00
     .710000000000D+02  .128750000000D+02  .555273129355D-08 -.144764142556D+00
     .707805156708D-06  .619984464720D-02  .537559390068D-05  .515364426231D+04
     .540000000000D+06 -.428408384323D-07  .116476627097D+01 -.875443220139D-07
     .934810883220D+00  .265500000000D+03 -.901743406261D+00 -.858071456406D-08
     .186793494985D-09  .100000000000D+01  .161200000000D+04  .000000000000D+00
     .240000000000D+01  .000000000000D+00 -.465661287308D-08  .710000000000D+02
     .532806000000D+06  .400000000000D+01
 7 10 12  4  6  0  0.0 -.651925802231D-08  .454747350886D-12  .000000000000D+00
     .130000000000D+02 -.141593750000D+03  .427660670926D-08  .235756592908D+01
    -.727921724319D-05  .418373011053D-02  .664778053761D-05  .515368571663D+04
     .540000000000D+06 -.949949026108D-07 -.870875265713D+00  .113621354103D-06
     .973307686583D+00  .259187500000D+03 -.311379100585D+01 -.800211903466D-08
    -.215723271454D-09  .100000000000D+01  .161200000000D+04  .000000000000D+00
     .240000000000D+01  .000000000000D+00 -.102445483208D-07  .130000000000D+02
     .532806000000D+06  .400000000000D+01
